CCSDS_OMM_VERS = 2.0
CREATION_DATE  = 
ORIGINATOR     = 

OBJECT_NAME    = STARLINK-36476
OBJECT_ID      = 2026-002K
CENTER_NAME    = EARTH
REF_FRAME      = TEME
TIME_SYSTEM    = UTC
MEAN_ELEMENT_THEORY = SGP/SGP4

EPOCH          = 2026-01-19T14:00:01.999872
MEAN_MOTION    = 15.75024269
ECCENTRICITY   = .00021462
INCLINATION    = 42.9984
RA_OF_ASC_NODE = 247.7147
ARG_OF_PERICENTER = 262.9898
MEAN_ANOMALY   = 331.0852

EPHEMERIS_TYPE = 0
CLASSIFICATION_TYPE = U
NORAD_CAT_ID   = 67314
ELEMENT_SET_NO = 999
REV_AT_EPOCH   = 352
BSTAR          = .15855061E-3
MEAN_MOTION_DOT = .23931E-3
MEAN_MOTION_DDOT = 0

CCSDS_OMM_VERS = 2.0
CREATION_DATE  = 
ORIGINATOR     = 

OBJECT_NAME    = STARLINK-36463
OBJECT_ID      = 2026-002L
CENTER_NAME    = EARTH
REF_FRAME      = TEME
TIME_SYSTEM    = UTC
MEAN_ELEMENT_THEORY = SGP/SGP4

EPOCH          = 2026-01-19T14:00:01.999872
MEAN_MOTION    = 15.75041023
ECCENTRICITY   = .00016841
INCLINATION    = 42.9986
RA_OF_ASC_NODE = 247.7050
ARG_OF_PERICENTER = 269.5348
MEAN_ANOMALY   = 328.3687

EPHEMERIS_TYPE = 0
CLASSIFICATION_TYPE = U
NORAD_CAT_ID   = 67315
ELEMENT_SET_NO = 999
REV_AT_EPOCH   = 358
BSTAR          = .21803102E-4
MEAN_MOTION_DOT = .2873E-4
MEAN_MOTION_DDOT = 0

CCSDS_OMM_VERS = 2.0
CREATION_DATE  = 
ORIGINATOR     = 

OBJECT_NAME    = STARLINK-36461
OBJECT_ID      = 2026-002M
CENTER_NAME    = EARTH
REF_FRAME      = TEME
TIME_SYSTEM    = UTC
MEAN_ELEMENT_THEORY = SGP/SGP4

EPOCH          = 2026-01-19T14:00:01.999872
MEAN_MOTION    = 15.75030596
ECCENTRICITY   = .00016286
INCLINATION    = 42.9985
RA_OF_ASC_NODE = 247.6997
ARG_OF_PERICENTER = 265.2670
MEAN_ANOMALY   = 334.5550

EPHEMERIS_TYPE = 0
CLASSIFICATION_TYPE = U
NORAD_CAT_ID   = 67316
ELEMENT_SET_NO = 999
REV_AT_EPOCH   = 368
BSTAR          = .10228301E-3
MEAN_MOTION_DOT = .15257E-3
MEAN_MOTION_DDOT = 0

CCSDS_OMM_VERS = 2.0
CREATION_DATE  = 
ORIGINATOR     = 

OBJECT_NAME    = STARLINK-36450
OBJECT_ID      = 2026-002N
CENTER_NAME    = EARTH
REF_FRAME      = TEME
TIME_SYSTEM    = UTC
MEAN_ELEMENT_THEORY = SGP/SGP4

EPOCH          = 2026-01-19T14:00:01.999872
MEAN_MOTION    = 15.75053245
ECCENTRICITY   = .00016512
INCLINATION    = 42.9987
RA_OF_ASC_NODE = 247.6951
ARG_OF_PERICENTER = 269.6147
MEAN_ANOMALY   = 332.1073

EPHEMERIS_TYPE = 0
CLASSIFICATION_TYPE = U
NORAD_CAT_ID   = 67317
ELEMENT_SET_NO = 999
REV_AT_EPOCH   = 368
BSTAR          = -.28440749E-4
MEAN_MOTION_DOT = -.4847E-4
MEAN_MOTION_DDOT = 0

CCSDS_OMM_VERS = 2.0
CREATION_DATE  = 
ORIGINATOR     = 

OBJECT_NAME    = STARLINK-36498
OBJECT_ID      = 2026-002P
CENTER_NAME    = EARTH
REF_FRAME      = TEME
TIME_SYSTEM    = UTC
MEAN_ELEMENT_THEORY = SGP/SGP4

EPOCH          = 2026-01-19T14:00:01.999872
MEAN_MOTION    = 15.75064216
ECCENTRICITY   = .00014977
INCLINATION    = 42.9985
RA_OF_ASC_NODE = 247.6852
ARG_OF_PERICENTER = 263.7256
MEAN_ANOMALY   = 341.8422

EPHEMERIS_TYPE = 0
CLASSIFICATION_TYPE = U
NORAD_CAT_ID   = 67318
ELEMENT_SET_NO = 999
REV_AT_EPOCH   = 358
BSTAR          = -.28731892E-3
MEAN_MOTION_DOT = -.44428E-3
MEAN_MOTION_DDOT = 0

CCSDS_OMM_VERS = 2.0
CREATION_DATE  = 
ORIGINATOR     = 

OBJECT_NAME    = STARLINK-36470
OBJECT_ID      = 2026-002Q
CENTER_NAME    = EARTH
REF_FRAME      = TEME
TIME_SYSTEM    = UTC
MEAN_ELEMENT_THEORY = SGP/SGP4

EPOCH          = 2026-01-19T14:00:01.999872
MEAN_MOTION    = 15.74995916
ECCENTRICITY   = .00017318
INCLINATION    = 42.9986
RA_OF_ASC_NODE = 247.6906
ARG_OF_PERICENTER = 266.7315
MEAN_ANOMALY   = 336.9775

EPHEMERIS_TYPE = 0
CLASSIFICATION_TYPE = U
NORAD_CAT_ID   = 67319
ELEMENT_SET_NO = 999
REV_AT_EPOCH   = 358
BSTAR          = .17628037E-3
MEAN_MOTION_DOT = .26635E-3
MEAN_MOTION_DDOT = 0

CCSDS_OMM_VERS = 2.0
CREATION_DATE  = 
ORIGINATOR     = 

OBJECT_NAME    = STARLINK-36500
OBJECT_ID      = 2026-002R
CENTER_NAME    = EARTH
REF_FRAME      = TEME
TIME_SYSTEM    = UTC
MEAN_ELEMENT_THEORY = SGP/SGP4

EPOCH          = 2026-01-19T14:00:01.999872
MEAN_MOTION    = 15.75036515
ECCENTRICITY   = .0002004
INCLINATION    = 42.9988
RA_OF_ASC_NODE = 247.6811
ARG_OF_PERICENTER = 270.8432
MEAN_ANOMALY   = 336.6474

EPHEMERIS_TYPE = 0
CLASSIFICATION_TYPE = U
NORAD_CAT_ID   = 67320
ELEMENT_SET_NO = 999
REV_AT_EPOCH   = 358
BSTAR          = -.5295807E-5
MEAN_MOTION_DOT = -.1291E-4
MEAN_MOTION_DDOT = 0

CCSDS_OMM_VERS = 2.0
CREATION_DATE  = 
ORIGINATOR     = 

OBJECT_NAME    = STARLINK-36462
OBJECT_ID      = 2026-002S
CENTER_NAME    = EARTH
REF_FRAME      = TEME
TIME_SYSTEM    = UTC
MEAN_ELEMENT_THEORY = SGP/SGP4

EPOCH          = 2026-01-19T14:00:01.999872
MEAN_MOTION    = 15.75045225
ECCENTRICITY   = .00021721
INCLINATION    = 42.9989
RA_OF_ASC_NODE = 247.6714
ARG_OF_PERICENTER = 262.3832
MEAN_ANOMALY   = 348.9393

EPHEMERIS_TYPE = 0
CLASSIFICATION_TYPE = U
NORAD_CAT_ID   = 67321
ELEMENT_SET_NO = 999
REV_AT_EPOCH   = 352
BSTAR          = -.72723927E-4
MEAN_MOTION_DOT = -.11638E-3
MEAN_MOTION_DDOT = 0

CCSDS_OMM_VERS = 2.0
CREATION_DATE  = 
ORIGINATOR     = 

OBJECT_NAME    = STARLINK-36434
OBJECT_ID      = 2026-002T
CENTER_NAME    = EARTH
REF_FRAME      = TEME
TIME_SYSTEM    = UTC
MEAN_ELEMENT_THEORY = SGP/SGP4

EPOCH          = 2026-01-19T14:00:01.999872
MEAN_MOTION    = 15.75051424
ECCENTRICITY   = .00020203
INCLINATION    = 42.9990
RA_OF_ASC_NODE = 247.6765
ARG_OF_PERICENTER = 267.0749
MEAN_ANOMALY   = 342.3244

EPHEMERIS_TYPE = 0
CLASSIFICATION_TYPE = U
NORAD_CAT_ID   = 67322
ELEMENT_SET_NO = 999
REV_AT_EPOCH   = 352
BSTAR          = -.80060595E-4
MEAN_MOTION_DOT = -.12765E-3
MEAN_MOTION_DDOT = 0

CCSDS_OMM_VERS = 2.0
CREATION_DATE  = 
ORIGINATOR     = 

OBJECT_NAME    = STARLINK-36497
OBJECT_ID      = 2026-002U
CENTER_NAME    = EARTH
REF_FRAME      = TEME
TIME_SYSTEM    = UTC
MEAN_ELEMENT_THEORY = SGP/SGP4

EPOCH          = 2026-01-19T14:00:01.999872
MEAN_MOTION    = 15.75053927
ECCENTRICITY   = .0001717
INCLINATION    = 42.9986
RA_OF_ASC_NODE = 247.6663
ARG_OF_PERICENTER = 263.2736
MEAN_ANOMALY   = 349.9680

EPHEMERIS_TYPE = 0
CLASSIFICATION_TYPE = U
NORAD_CAT_ID   = 67323
ELEMENT_SET_NO = 999
REV_AT_EPOCH   = 358
BSTAR          = -.18849835E-3
MEAN_MOTION_DOT = -.29351E-3
MEAN_MOTION_DDOT = 0

CCSDS_OMM_VERS = 2.0
CREATION_DATE  = 
ORIGINATOR     = 

OBJECT_NAME    = STARLINK-36471
OBJECT_ID      = 2026-002V
CENTER_NAME    = EARTH
REF_FRAME      = TEME
TIME_SYSTEM    = UTC
MEAN_ELEMENT_THEORY = SGP/SGP4

EPOCH          = 2026-01-19T14:00:01.999872
MEAN_MOTION    = 15.75090527
ECCENTRICITY   = .00024588
INCLINATION    = 42.9986
RA_OF_ASC_NODE = 247.6570
ARG_OF_PERICENTER = 263.7547
MEAN_ANOMALY   = 353.2660

EPHEMERIS_TYPE = 0
CLASSIFICATION_TYPE = U
NORAD_CAT_ID   = 67324
ELEMENT_SET_NO = 999
REV_AT_EPOCH   = 352
BSTAR          = -.21590391E-3
MEAN_MOTION_DOT = -.33591E-3
MEAN_MOTION_DDOT = 0

CCSDS_OMM_VERS = 2.0
CREATION_DATE  = 
ORIGINATOR     = 

OBJECT_NAME    = STARLINK-36473
OBJECT_ID      = 2026-002W
CENTER_NAME    = EARTH
REF_FRAME      = TEME
TIME_SYSTEM    = UTC
MEAN_ELEMENT_THEORY = SGP/SGP4

EPOCH          = 2026-01-19T14:00:01.999872
MEAN_MOTION    = 15.75082156
ECCENTRICITY   = .00012283
INCLINATION    = 42.9986
RA_OF_ASC_NODE = 247.6614
ARG_OF_PERICENTER = 255.4076
MEAN_ANOMALY   = 359.7380

EPHEMERIS_TYPE = 0
CLASSIFICATION_TYPE = U
NORAD_CAT_ID   = 67325
ELEMENT_SET_NO = 999
REV_AT_EPOCH   = 368
BSTAR          = -.50235757E-3
MEAN_MOTION_DOT = -.77084E-3
MEAN_MOTION_DDOT = 0

