STARLINK-36476          
1 67314U 26002K   26019.58335648  .00023931  00000+0  15855-3 0  9995
2 67314  42.9984 247.7147 0002146 262.9898 331.0852 15.75024269  3521
STARLINK-36463          
1 67315U 26002L   26019.58335648  .00002873  00000+0  21803-4 0  9999
2 67315  42.9986 247.7050 0001684 269.5348 328.3687 15.75041023  3584
STARLINK-36461          
1 67316U 26002M   26019.58335648  .00015257  00000+0  10228-3 0  9998
2 67316  42.9985 247.6997 0001628 265.2670 334.5550 15.75030596  3684
STARLINK-36450          
1 67317U 26002N   26019.58335648 -.00004847  00000+0 -28441-4 0  9991
2 67317  42.9987 247.6951 0001651 269.6147 332.1073 15.75053245  3680
STARLINK-36498          
1 67318U 26002P   26019.58335648 -.00044428  00000+0 -28732-3 0  9993
2 67318  42.9985 247.6852 0001497 263.7256 341.8422 15.75064216  3587
STARLINK-36470          
1 67319U 26002Q   26019.58335648  .00026635  00000+0  17628-3 0  9994
2 67319  42.9986 247.6906 0001731 266.7315 336.9775 15.74995916  3584
STARLINK-36500          
1 67320U 26002R   26019.58335648 -.00001291  00000+0 -52958-5 0  9996
2 67320  42.9988 247.6811 0002004 270.8432 336.6474 15.75036515  3588
STARLINK-36462          
1 67321U 26002S   26019.58335648 -.00011638  00000+0 -72724-4 0  9995
2 67321  42.9989 247.6714 0002172 262.3832 348.9393 15.75045225  3526
STARLINK-36434          
1 67322U 26002T   26019.58335648 -.00012765  00000+0 -80061-4 0  9991
2 67322  42.9990 247.6765 0002020 267.0749 342.3244 15.75051424  3527
STARLINK-36497          
1 67323U 26002U   26019.58335648 -.00029351  00000+0 -18850-3 0  9997
2 67323  42.9986 247.6663 0001717 263.2736 349.9680 15.75053927  3589
STARLINK-36471          
1 67324U 26002V   26019.58335648 -.00033591  00000+0 -21590-3 0  9994
2 67324  42.9986 247.6570 0002458 263.7547 353.2660 15.75090527  3522
STARLINK-36473          
1 67325U 26002W   26019.58335648 -.00077084  00000+0 -50236-3 0  9999
2 67325  42.9986 247.6614 0001228 255.4076 359.7380 15.75082156  3687
